[{"OBJECT_NAME":"STARLINK-3582","OBJECT_ID":"2022-022X","EPOCH":"2026-03-09T22:56:15.036576","MEAN_MOTION":15.17112073,"ECCENTRICITY":0.00019498,"INCLINATION":53.2143,"RA_OF_ASC_NODE":3.953,"ARG_OF_PERICENTER":143.0365,"MEAN_ANOMALY":217.0766,"EPHEMERIS_TYPE":0,"CLASSIFICATION_TYPE":"U","NORAD_CAT_ID":51873,"ELEMENT_SET_NO":999,"REV_AT_EPOCH":22321,"BSTAR":0.0018716326,"MEAN_MOTION_DOT":0.00037432,"MEAN_MOTION_DDOT":0},{"OBJECT_NAME":"FLOCK 4H-6","OBJECT_ID":"2025-276AV","EPOCH":"2026-03-09T17:20:31.081344","MEAN_MOTION":15.19043322,"ECCENTRICITY":0.00022287,"INCLINATION":97.4294,"RA_OF_ASC_NODE":144.0723,"ARG_OF_PERICENTER":346.2393,"MEAN_ANOMALY":13.878,"EPHEMERIS_TYPE":0,"CLASSIFICATION_TYPE":"U","NORAD_CAT_ID":66709,"ELEMENT_SET_NO":999,"REV_AT_EPOCH":1532,"BSTAR":0.00034579491,"MEAN_MOTION_DOT":7.179e-5,"MEAN_MOTION_DDOT":0}]
